[{"OBJECT_NAME":"STARLINK-6262","OBJECT_ID":"2023-088AV","EPOCH":"2026-03-09T22:00:01.999584","MEAN_MOTION":15.08522241,"ECCENTRICITY":0.00013561,"INCLINATION":43.0008,"RA_OF_ASC_NODE":92.9596,"ARG_OF_PERICENTER":291.1989,"MEAN_ANOMALY":189.7369,"EPHEMERIS_TYPE":0,"CLASSIFICATION_TYPE":"U","NORAD_CAT_ID":57091,"ELEMENT_SET_NO":999,"REV_AT_EPOCH":578,"BSTAR":0.0034695324,"MEAN_MOTION_DOT":0.00055285,"MEAN_MOTION_DDOT":0},{"OBJECT_NAME":"ICEYE-X67","OBJECT_ID":"2025-248K","EPOCH":"2026-03-09T22:00:01.999584","MEAN_MOTION":15.09405994,"ECCENTRICITY":0.00063951,"INCLINATION":45.4045,"RA_OF_ASC_NODE":295.7576,"ARG_OF_PERICENTER":209.4534,"MEAN_ANOMALY":51.9892,"EPHEMERIS_TYPE":0,"CLASSIFICATION_TYPE":"U","NORAD_CAT_ID":66302,"ELEMENT_SET_NO":999,"REV_AT_EPOCH":578,"BSTAR":-0.000164009,"MEAN_MOTION_DOT":-2.917e-5,"MEAN_MOTION_DDOT":0}]
